{
    "links": {
        "self": "http://www.neowsapp.com/rest/v1/neo/3339220?api_key=iIulBulltgU6a56xZRHN4H3l9WmuAYTsLGpBGhQ2"
    },
    "id": "3339220",
    "neo_reference_id": "3339220",
    "name": "(2006 QB58)",
    "designation": "2006 QB58",
    "nasa_jpl_url": "http://ssd.jpl.nasa.gov/sbdb.cgi?sstr=3339220",
    "absolute_magnitude_h": 23.9,
    "estimated_diameter": {
        "kilometers": {
            "estimated_diameter_min": 0.04411182,
            "estimated_diameter_max": 0.0986370281
        },
        "meters": {
            "estimated_diameter_min": 44.1118199997,
            "estimated_diameter_max": 98.6370281305
        },
        "miles": {
            "estimated_diameter_min": 0.0274098057,
            "estimated_diameter_max": 0.0612901888
        },
        "feet": {
            "estimated_diameter_min": 144.7238235278,
            "estimated_diameter_max": 323.6123073718
        }
    },
    "is_potentially_hazardous_asteroid": false,
    "close_approach_data": [
        {
            "close_approach_date": "2006-08-01",
            "close_approach_date_full": "2006-Aug-01 22:20",
            "epoch_date_close_approach": 1154470800000,
            "relative_velocity": {
                "kilometers_per_second": "6.0733662181",
                "kilometers_per_hour": "21864.1183852889",
                "miles_per_hour": "13585.512893348"
            },
            "miss_distance": {
                "astronomical": "0.1013517514",
                "lunar": "39.4258312946",
                "kilometers": "15162006.130209518",
                "miles": "9421233.7408986284"
            },
            "orbiting_body": "Earth"
        }
    ],
    "orbital_data": {
        "orbit_id": "11",
        "orbit_determination_date": "2017-04-06 09:08:14",
        "first_observation_date": "2006-08-28",
        "last_observation_date": "2006-09-24",
        "data_arc_in_days": 27,
        "observations_used": 23,
        "orbit_uncertainty": "8",
        "minimum_orbit_intersection": ".101114",
        "jupiter_tisserand_invariant": "3.570",
        "epoch_osculation": "2453979.5",
        "eccentricity": ".4806066815802",
        "semi_major_axis": "2.117464638282727",
        "inclination": "5.901175852717432",
        "ascending_node_longitude": "337.4550976303698",
        "orbital_period": "1125.440854478634",
        "perihelion_distance": "1.099796985114247",
        "perihelion_argument": "325.1473332300598",
        "aphelion_distance": "3.135132291451206",
        "perihelion_time": "2453942.711619096772",
        "mean_anomaly": "11.76767048437862",
        "mean_motion": ".3198746505135284",
        "equinox": "J2000",
        "orbit_class": {
            "orbit_class_type": "AMO",
            "orbit_class_description": "Near-Earth asteroid orbits similar to that of 1221 Amor",
            "orbit_class_range": "1.017 AU < q (perihelion) < 1.3 AU"
        }
    },
    "is_sentry_object": false
}